{
  "type": "FeatureCollection",
  "features": [
    {
      "type": "Feature",
      "properties": {
        "norad_id": 29968,
        "name": "FENGYUN 1C DEB",
        "group": "fengyun-1c-debris",
        "lat": -4.002088479523361,
        "lon": -15.1358363984151,
        "alt_km": 812.5360743647589,
        "timestamp": "2025-12-20T16:47:36.559467+00:00",
        "meta_object_name": "FENGYUN 1C DEB",
        "meta_object_id": "1999-025KS",
        "meta_epoch": "2025-12-20T12:14:14.788032",
        "meta_mean_motion": 14.07262096,
        "meta_eccentricity": 0.0089718,
        "meta_inclination": 98.805,
        "meta_ra_of_asc_node": 344.0579,
        "meta_arg_of_pericenter": 332.8613,
        "meta_mean_anomaly": 141.5964,
        "meta_ephemeris_type": 0,
        "meta_classification_type": "U",
        "meta_norad_cat_id": 29968,
        "meta_element_set_no": 999,
        "meta_rev_at_epoch": 97158,
        "meta_bstar": 0.0001987,
        "meta_mean_motion_dot": 3.02e-06,
        "meta_mean_motion_ddot": 0,
        "tle_line1": "1 29968U 99025KS  25354.50989338  .00000302  00000+0  19870-3 0  9995",
        "tle_line2": "2 29968  98.8050 344.0579 0089718 332.8613 141.5964 14.07262096971584"
      },
      "geometry": {
        "type": "Point",
        "coordinates": [
          -15.1358363984151,
          -4.002088479523361
        ]
      }
    },
    {
      "type": "Feature",
      "properties": {
        "norad_id": 29969,
        "name": "FENGYUN 1C DEB",
        "group": "fengyun-1c-debris",
        "lat": 74.55653186306307,
        "lon": 45.128815430709125,
        "alt_km": 754.9916098903723,
        "timestamp": "2025-12-20T16:47:36.559477+00:00",
        "meta_object_name": "FENGYUN 1C DEB",
        "meta_object_id": "1999-025KT",
        "meta_epoch": "2025-12-20T04:50:40.003296",
        "meta_mean_motion": 14.33280291,
        "meta_eccentricity": 0.00410531,
        "meta_inclination": 98.7722,
        "meta_ra_of_asc_node": 78.6063,
        "meta_arg_of_pericenter": 27.9311,
        "meta_mean_anomaly": 1.483,
        "meta_ephemeris_type": 0,
        "meta_classification_type": "U",
        "meta_norad_cat_id": 29969,
        "meta_element_set_no": 999,
        "meta_rev_at_epoch": 97769,
        "meta_bstar": 0.0011106912,
        "meta_mean_motion_dot": 3.041e-05,
        "meta_mean_motion_ddot": 0,
        "tle_line1": "1 29969U 99025KT  25354.20185189  .00003041  00000+0  11107-2 0  9992",
        "tle_line2": "2 29969  98.7722  78.6063 0041053  27.9311   1.4830 14.33280291977695"
      },
      "geometry": {
        "type": "Point",
        "coordinates": [
          45.128815430709125,
          74.55653186306307
        ]
      }
    },
    {
      "type": "Feature",
      "properties": {
        "norad_id": 29970,
        "name": "FENGYUN 1C DEB",
        "group": "fengyun-1c-debris",
        "lat": -48.9506387548183,
        "lon": 93.03303424843665,
        "alt_km": 725.3279582235,
        "timestamp": "2025-12-20T16:47:36.559487+00:00",
        "meta_object_name": "FENGYUN 1C DEB",
        "meta_object_id": "1999-025KU",
        "meta_epoch": "2025-12-20T09:39:20.605248",
        "meta_mean_motion": 14.43972276,
        "meta_eccentricity": 0.0091159,
        "meta_inclination": 98.8094,
        "meta_ra_of_asc_node": 282.9835,
        "meta_arg_of_pericenter": 164.5455,
        "meta_mean_anomaly": 319.0409,
        "meta_ephemeris_type": 0,
        "meta_classification_type": "U",
        "meta_norad_cat_id": 29970,
        "meta_element_set_no": 999,
        "meta_rev_at_epoch": 99231,
        "meta_bstar": 0.00026959,
        "meta_mean_motion_dot": 9.18e-06,
        "meta_mean_motion_ddot": 0,
        "tle_line1": "1 29970U 99025KU  25354.40232182  .00000918  00000+0  26959-3 0  9994",
        "tle_line2": "2 29970  98.8094 282.9835 0091159 164.5455 319.0409 14.43972276992314"
      },
      "geometry": {
        "type": "Point",
        "coordinates": [
          93.03303424843665,
          -48.9506387548183
        ]
      }
    },
    {
      "type": "Feature",
      "properties": {
        "norad_id": 29971,
        "name": "FENGYUN 1C DEB",
        "group": "fengyun-1c-debris",
        "lat": -9.834949580360373,
        "lon": -147.22249926326626,
        "alt_km": 823.1138785200892,
        "timestamp": "2025-12-20T16:47:36.559497+00:00",
        "meta_object_name": "FENGYUN 1C DEB",
        "meta_object_id": "1999-025KV",
        "meta_epoch": "2025-12-20T02:26:58.369344",
        "meta_mean_motion": 14.18201638,
        "meta_eccentricity": 0.00240548,
        "meta_inclination": 98.6827,
        "meta_ra_of_asc_node": 33.7109,
        "meta_arg_of_pericenter": 147.2015,
        "meta_mean_anomaly": 232.7644,
        "meta_ephemeris_type": 0,
        "meta_classification_type": "U",
        "meta_norad_cat_id": 29971,
        "meta_element_set_no": 999,
        "meta_rev_at_epoch": 97444,
        "meta_bstar": 0.00060417565,
        "meta_mean_motion_dot": 1.202e-05,
        "meta_mean_motion_ddot": 0,
        "tle_line1": "1 29971U 99025KV  25354.10206446  .00001202  00000+0  60418-3 0  9991",
        "tle_line2": "2 29971  98.6827  33.7109 0024054 147.2015 232.7644 14.18201638974448"
      },
      "geometry": {
        "type": "Point",
        "coordinates": [
          -147.22249926326626,
          -9.834949580360373
        ]
      }
    },
    {
      "type": "Feature",
      "properties": {
        "norad_id": 29972,
        "name": "FENGYUN 1C DEB",
        "group": "fengyun-1c-debris",
        "lat": -66.51964178495659,
        "lon": 28.685297598280243,
        "alt_km": 654.0410339867112,
        "timestamp": "2025-12-20T16:47:36.559508+00:00",
        "meta_object_name": "FENGYUN 1C DEB",
        "meta_object_id": "1999-025KW",
        "meta_epoch": "2025-12-20T07:20:55.677408",
        "meta_mean_motion": 14.66439912,
        "meta_eccentricity": 0.0064374,
        "meta_inclination": 98.92,
        "meta_ra_of_asc_node": 7.0626,
        "meta_arg_of_pericenter": 349.0223,
        "meta_mean_anomaly": 27.1448,
        "meta_ephemeris_type": 0,
        "meta_classification_type": "U",
        "meta_norad_cat_id": 29972,
        "meta_element_set_no": 999,
        "meta_rev_at_epoch": 99597,
        "meta_bstar": 0.00079394,
        "meta_mean_motion_dot": 4.472e-05,
        "meta_mean_motion_ddot": 0,
        "tle_line1": "1 29972U 99025KW  25354.30619997  .00004472  00000+0  79394-3 0  9998",
        "tle_line2": "2 29972  98.9200   7.0626 0064374 349.0223  27.1448 14.66439912995977"
      },
      "geometry": {
        "type": "Point",
        "coordinates": [
          28.685297598280243,
          -66.51964178495659
        ]
      }
    },
    {
      "type": "Feature",
      "properties": {
        "norad_id": 29973,
        "name": "FENGYUN 1C DEB",
        "group": "fengyun-1c-debris",
        "lat": 10.59362933719441,
        "lon": 176.67783181738,
        "alt_km": 840.6117406829235,
        "timestamp": "2025-12-20T16:47:36.559518+00:00",
        "meta_object_name": "FENGYUN 1C DEB",
        "meta_object_id": "1999-025KX",
        "meta_epoch": "2025-12-20T05:49:40.040256",
        "meta_mean_motion": 14.06549999,
        "meta_eccentricity": 0.0059502,
        "meta_inclination": 98.8423,
        "meta_ra_of_asc_node": 354.5631,
        "meta_arg_of_pericenter": 128.0973,
        "meta_mean_anomaly": 248.3201,
        "meta_ephemeris_type": 0,
        "meta_classification_type": "U",
        "meta_norad_cat_id": 29973,
        "meta_element_set_no": 999,
        "meta_rev_at_epoch": 96824,
        "meta_bstar": 0.00047787,
        "meta_mean_motion_dot": 7.61e-06,
        "meta_mean_motion_ddot": 0,
        "tle_line1": "1 29973U 99025KX  25354.24282454  .00000761  00000+0  47787-3 0  9994",
        "tle_line2": "2 29973  98.8423 354.5631 0059502 128.0973 248.3201 14.06549999968249"
      },
      "geometry": {
        "type": "Point",
        "coordinates": [
          176.67783181738,
          10.59362933719441
        ]
      }
    },
    {
      "type": "Feature",
      "properties": {
        "norad_id": 29974,
        "name": "FENGYUN 1C DEB",
        "group": "fengyun-1c-debris",
        "lat": -80.00858581936677,
        "lon": -163.87929689832598,
        "alt_km": 880.0674657413756,
        "timestamp": "2025-12-20T16:47:36.559528+00:00",
        "meta_object_name": "FENGYUN 1C DEB",
        "meta_object_id": "1999-025KY",
        "meta_epoch": "2025-12-20T12:12:51.715296",
        "meta_mean_motion": 14.14877641,
        "meta_eccentricity": 0.0046228,
        "meta_inclination": 98.8939,
        "meta_ra_of_asc_node": 78.6562,
        "meta_arg_of_pericenter": 60.1388,
        "meta_mean_anomaly": 314.2292,
        "meta_ephemeris_type": 0,
        "meta_classification_type": "U",
        "meta_norad_cat_id": 29974,
        "meta_element_set_no": 999,
        "meta_rev_at_epoch": 97035,
        "meta_bstar": 0.00076908,
        "meta_mean_motion_dot": 1.456e-05,
        "meta_mean_motion_ddot": 0,
        "tle_line1": "1 29974U 99025KY  25354.50893189  .00001456  00000+0  76908-3 0  9996",
        "tle_line2": "2 29974  98.8939  78.6562 0046228  60.1388 314.2292 14.14877641970351"
      },
      "geometry": {
        "type": "Point",
        "coordinates": [
          -163.87929689832598,
          -80.00858581936677
        ]
      }
    }
  ]
}